BEIDOU-2 IGSO-1         
1 36828U 10036A   26141.01113589 -.00000079  00000+0  00000+0 0  9994
2 36828  54.2967 163.2045 0058933 224.9850 321.8842  1.00280030 57825
BEIDOU-2 G4             
1 37210U 10057A   26141.29434628 -.00000119  00000+0  00000+0 0  9998
2 37210   3.5818  69.0929 0005747 208.0275 227.7691  1.00271614 57022
BEIDOU-2 IGSO-2         
1 37256U 10068A   26140.79488699 -.00000222  00000+0  00000+0 0  9996
2 37256  47.6009 272.1707 0054486 211.9297 147.0769  1.00291600 56515
BEIDOU-2 IGSO-3         
1 37384U 11013A   26134.75077336 -.00000206  00000+0  00000+0 0  9992
2 37384  62.3634  40.4703 0033942 185.9417  24.6219  1.00276202 55324
BEIDOU-2 IGSO-4         
1 37763U 11038A   26141.03904416  .00000016  00000+0  00000+0 0  9995
2 37763  54.5929 165.9142 0158504 231.3551 307.5211  1.00290119 54374
BEIDOU-2 IGSO-5         
1 37948U 11073A   26140.84886103 -.00000191  00000+0  00000+0 0  9994
2 37948  47.7298 271.8817 0112132 220.6478 143.6793  1.00254801 52868
BEIDOU-2 G5             
1 38091U 12008A   26141.17505935  .00000050  00000+0  00000+0 0  9994
2 38091   3.5081  69.8463 0010906 270.2158  20.4654  1.00273299 52097
BEIDOU-2 M3             
1 38250U 12018A   26140.26686604 -.00000058  00000+0  00000+0 0  9993
2 38250  55.7826 305.8158 0019746 275.9004  83.8519  1.86229681 95424
BEIDOU-2 M4             
1 38251U 12018B   26140.19912060 -.00000057  00000+0  00000+0 0  9993
2 38251  55.6827 305.0343 0011032 279.8130  80.0393  1.86229401 95425
BEIDOU-2 M6             
1 38775U 12050B   26140.98287755 -.00000043  00000+0  00000+0 0  9998
2 38775  56.5216  63.7937 0014256 352.7329   7.2430  1.86230801 92805
BEIDOU-2 G6             
1 38953U 12059A   26140.99361130 -.00000182  00000+0  00000+0 0  9990
2 38953   4.3545  73.8005 0010216 320.5173 286.0724  1.00269972 49632
BEIDOU-3S IGSO-1S       
1 40549U 15019A   26140.89816953 -.00000181  00000+0  00000+0 0  9999
2 40549  49.2478 295.7871 0038067 189.9890 169.6893  1.00255241 40797
BEIDOU-3S M2S           
1 40748U 15037A   26140.40194611 -.00000058  00000+0  00000+0 0  9990
2 40748  54.8960 303.0022 0007623 265.0164  94.8728  1.86231852 73609
BEIDOU-3S M1S           
1 40749U 15037B   26140.07585329 -.00000057  00000+0  00000+0 0  9993
2 40749  54.8932 303.0013 0004000  57.4653 302.5491  1.86254754 73603
BEIDOU-3S IGSO-2S       
1 40938U 15053A   26140.80025236 -.00000157  00000+0  00000+0 0  9999
2 40938  49.2661 259.1074 0064744 191.1209 172.6290  1.00265102 39084
BEIDOU-2 IGSO-6         
1 41434U 16021A   26140.68849446 -.00000169  00000+0  00000+0 0  9993
2 41434  60.1892  38.3127 0057369 232.4301 309.7522  1.00263960 37200
BEIDOU-2 G7             
1 41586U 16037A   26141.04268418 -.00000359  00000+0  00000+0 0  9994
2 41586   1.6543  69.0560 0007288 359.4830 295.9731  1.00265055  6611
BEIDOU-3 M1             
1 43001U 17069A   26140.74826061 -.00000042  00000+0  00000+0 0  9993
2 43001  56.6699  63.9882 0011501 321.9882  37.9268  1.86230882 58093
BEIDOU-3 M2             
1 43002U 17069B   26140.68693628 -.00000042  00000+0  00000+0 0  9998
2 43002  56.6686  64.0265 0009802 344.8357  15.1308  1.86230581 58087
BEIDOU-3 M7             
1 43107U 18003A   26140.42858385 -.00000060  00000+0  00000+0 0  9998
2 43107  54.3536 303.2827 0005157  86.7095 273.3263  1.86227939 56836
BEIDOU-3 M8             
1 43108U 18003B   26140.37378898 -.00000060  00000+0  00000+0 0  9999
2 43108  54.3473 303.2667 0002128 274.9884  84.9638  1.86230797 56840
BEIDOU-3 M4             
1 43207U 18018A   26140.81654161 -.00000042  00000+0  00000+0 0  9994
2 43207  56.6289  64.0508 0007897   9.7276 350.2836  1.86230845 56239
BEIDOU-3 M3             
1 43208U 18018B   26140.88300459 -.00000042  00000+0  00000+0 0  9990
2 43208  56.6283  64.0526 0009521 335.5186  24.4324  1.86230693 56233
BEIDOU-3 M9             
1 43245U 18029A   26140.56372123 -.00000058  00000+0  00000+0 0  9992
2 43245  54.2193 300.9137 0000951 119.7583 240.2270  1.86227997 55385
BEIDOU-3 M10            
1 43246U 18029B   26140.49822334 -.00000058  00000+0  00000+0 0  9999
2 43246  54.2177 300.9433 0004440  38.3472 321.6600  1.86229004 55367
BEIDOU-2 IGSO-7         
1 43539U 18057A   26140.97181334 -.00000042  00000+0  00000+0 0  9999
2 43539  55.1882 163.2953 0104342 238.0207 298.9139  1.00259367 28857
BEIDOU-3 M5             
1 43581U 18062A   26141.25936020  .00000034  00000+0  00000+0 0  9994
2 43581  54.0833 183.2195 0005253 288.6563  71.3552  1.86228723 53132
BEIDOU-3 M6             
1 43582U 18062B   26141.12270174  .00000034  00000+0  00000+0 0  9992
2 43582  54.0833 183.2136 0004711  14.8012 345.2818  1.86227822 53131
BEIDOU-3 M12            
1 43602U 18067A   26137.30242253  .00000084  00000+0  00000+0 0  9997
2 43602  54.1786 182.0879 0007743  31.4775 328.6606  1.86227757 52543
BEIDOU-3 M11            
1 43603U 18067B   26141.19608023  .00000036  00000+0  00000+0 0  9998
2 43603  54.1757 181.9195 0004399  15.6107 344.4705  1.86227230 52641
BEIDOU-3 M13            
1 43622U 18072A   26140.61412353 -.00000042  00000+0  00000+0 0  9998
2 43622  56.6015  63.5700 0008183 323.4763  36.4643  1.86231134 52148
